[{"OBJECT_NAME":"YAOGAN-30 08B","OBJECT_ID":"2020-076B","EPOCH":"2026-03-09T22:42:15.045408","MEAN_MOTION":15.02083021,"ECCENTRICITY":0.00018813,"INCLINATION":34.9955,"RA_OF_ASC_NODE":335.6171,"ARG_OF_PERICENTER":239.6156,"MEAN_ANOMALY":120.4366,"EPHEMERIS_TYPE":0,"CLASSIFICATION_TYPE":"U","NORAD_CAT_ID":46808,"ELEMENT_SET_NO":999,"REV_AT_EPOCH":29329,"BSTAR":0.00029214643,"MEAN_MOTION_DOT":3.888e-5,"MEAN_MOTION_DDOT":0},{"OBJECT_NAME":"STARLINK-5089","OBJECT_ID":"2023-046BJ","EPOCH":"2026-03-09T10:29:20.263776","MEAN_MOTION":15.03010147,"ECCENTRICITY":0.00015953,"INCLINATION":43.0025,"RA_OF_ASC_NODE":109.142,"ARG_OF_PERICENTER":212.4436,"MEAN_ANOMALY":147.6309,"EPHEMERIS_TYPE":0,"CLASSIFICATION_TYPE":"U","NORAD_CAT_ID":56148,"ELEMENT_SET_NO":999,"REV_AT_EPOCH":16261,"BSTAR":0.0043155031,"MEAN_MOTION_DOT":0.00059331,"MEAN_MOTION_DDOT":0}]
